OBJECT B                
1 51825U 22019B   25036.93474821  .00027038  00000+0  83496-3 0  9991
2 51825  97.4010 112.8567 0012364 130.0989 230.1339 15.33443640162902
